<?xml version="1.0"?><gpx version="1.1" creator="Garmin Connect"><trk><name>Windsurfing</name><trkseg><trkpt lat="36.065500" lon="-5.693500"><time>2026-09-30T12:05:00Z</time></trkpt><trkpt lat="36.065052" lon="-5.693791"><time>2026-09-30T12:05:07Z</time></trkpt><trkpt lat="36.064599" lon="-5.694069"><time>2026-09-30T12:05:14Z</time></trkpt><trkpt lat="36.064146" lon="-5.694345"><time>2026-09-30T12:05:21Z</time></trkpt><trkpt lat="36.063690" lon="-5.694613"><time>2026-09-30T12:05:28Z</time></trkpt><trkpt lat="36.063229" lon="-5.694868"><time>2026-09-30T12:05:35Z</time></trkpt><trkpt lat="36.062768" lon="-5.695120"><time>2026-09-30T12:05:42Z</time></trkpt><trkpt lat="36.062302" lon="-5.695357"><time>2026-09-30T12:05:49Z</time></trkpt><trkpt lat="36.061835" lon="-5.695590"><time>2026-09-30T12:05:56Z</time></trkpt><trkpt lat="36.061364" lon="-5.695808"><time>2026-09-30T12:06:03Z</time></trkpt><trkpt lat="36.060890" lon="-5.696014"><time>2026-09-30T12:06:10Z</time></trkpt><trkpt lat="36.060415" lon="-5.696214"><time>2026-09-30T12:06:17Z</time></trkpt><trkpt lat="36.059940" lon="-5.696417"><time>2026-09-30T12:06:24Z</time></trkpt><trkpt lat="36.059463" lon="-5.696608"><time>2026-09-30T12:06:31Z</time></trkpt><trkpt lat="36.058983" lon="-5.696789"><time>2026-09-30T12:06:38Z</time></trkpt><trkpt lat="36.058503" lon="-5.696968"><time>2026-09-30T12:06:45Z</time></trkpt><trkpt lat="36.058025" lon="-5.697154"><time>2026-09-30T12:06:52Z</time></trkpt><trkpt lat="36.057546" lon="-5.697338"><time>2026-09-30T12:06:59Z</time></trkpt><trkpt lat="36.057066" lon="-5.697515"><time>2026-09-30T12:07:06Z</time></trkpt><trkpt lat="36.056587" lon="-5.697699"><time>2026-09-30T12:07:13Z</time></trkpt><trkpt lat="36.056106" lon="-5.697869"><time>2026-09-30T12:07:20Z</time></trkpt><trkpt lat="36.055625" lon="-5.698043"><time>2026-09-30T12:07:27Z</time></trkpt><trkpt lat="36.055142" lon="-5.698208"><time>2026-09-30T12:07:34Z</time></trkpt><trkpt lat="36.054658" lon="-5.698361"><time>2026-09-30T12:07:41Z</time></trkpt><trkpt lat="36.054171" lon="-5.698501"><time>2026-09-30T12:07:48Z</time></trkpt><trkpt lat="36.053684" lon="-5.698633"><time>2026-09-30T12:07:55Z</time></trkpt><trkpt lat="36.053197" lon="-5.698768"><time>2026-09-30T12:08:02Z</time></trkpt><trkpt lat="36.052708" lon="-5.698891"><time>2026-09-30T12:08:09Z</time></trkpt><trkpt lat="36.052219" lon="-5.699013"><time>2026-09-30T12:08:16Z</time></trkpt><trkpt lat="36.051730" lon="-5.699133"><time>2026-09-30T12:08:23Z</time></trkpt><trkpt lat="36.051608" lon="-5.699095"><time>2026-09-30T12:08:26Z</time></trkpt><trkpt lat="36.051507" lon="-5.699002"><time>2026-09-30T12:08:29Z</time></trkpt><trkpt lat="36.051443" lon="-5.698868"><time>2026-09-30T12:08:32Z</time></trkpt><trkpt lat="36.051425" lon="-5.698714"><time>2026-09-30T12:08:35Z</time></trkpt><trkpt lat="36.051456" lon="-5.698563"><time>2026-09-30T12:08:38Z</time></trkpt><trkpt lat="36.051532" lon="-5.698439"><time>2026-09-30T12:08:41Z</time></trkpt><trkpt lat="36.051640" lon="-5.698359"><time>2026-09-30T12:08:44Z</time></trkpt><trkpt lat="36.051764" lon="-5.698337"><time>2026-09-30T12:08:47Z</time></trkpt><trkpt lat="36.052257" lon="-5.698326"><time>2026-09-30T12:08:54Z</time></trkpt><trkpt lat="36.052750" lon="-5.698326"><time>2026-09-30T12:09:01Z</time></trkpt><trkpt lat="36.053244" lon="-5.698328"><time>2026-09-30T12:09:08Z</time></trkpt><trkpt lat="36.053737" lon="-5.698336"><time>2026-09-30T12:09:15Z</time></trkpt><trkpt lat="36.054231" lon="-5.698354"><time>2026-09-30T12:09:22Z</time></trkpt><trkpt lat="36.054725" lon="-5.698374"><time>2026-09-30T12:09:29Z</time></trkpt><trkpt lat="36.055219" lon="-5.698402"><time>2026-09-30T12:09:36Z</time></trkpt><trkpt lat="36.055713" lon="-5.698439"><time>2026-09-30T12:09:43Z</time></trkpt><trkpt lat="36.056207" lon="-5.698474"><time>2026-09-30T12:09:50Z</time></trkpt><trkpt lat="36.056701" lon="-5.698509"><time>2026-09-30T12:09:57Z</time></trkpt><trkpt lat="36.057195" lon="-5.698556"><time>2026-09-30T12:10:04Z</time></trkpt><trkpt lat="36.057689" lon="-5.698606"><time>2026-09-30T12:10:11Z</time></trkpt><trkpt lat="36.058183" lon="-5.698661"><time>2026-09-30T12:10:18Z</time></trkpt><trkpt lat="36.058677" lon="-5.698712"><time>2026-09-30T12:10:25Z</time></trkpt><trkpt lat="36.059171" lon="-5.698763"><time>2026-09-30T12:10:32Z</time></trkpt><trkpt lat="36.059664" lon="-5.698823"><time>2026-09-30T12:10:39Z</time></trkpt><trkpt lat="36.060158" lon="-5.698878"><time>2026-09-30T12:10:46Z</time></trkpt><trkpt lat="36.060651" lon="-5.698947"><time>2026-09-30T12:10:53Z</time></trkpt><trkpt lat="36.061144" lon="-5.699023"><time>2026-09-30T12:11:00Z</time></trkpt><trkpt lat="36.061637" lon="-5.699098"><time>2026-09-30T12:11:07Z</time></trkpt><trkpt lat="36.062129" lon="-5.699186"><time>2026-09-30T12:11:14Z</time></trkpt><trkpt lat="36.062621" lon="-5.699279"><time>2026-09-30T12:11:21Z</time></trkpt><trkpt lat="36.063111" lon="-5.699389"><time>2026-09-30T12:11:28Z</time></trkpt><trkpt lat="36.063601" lon="-5.699499"><time>2026-09-30T12:11:35Z</time></trkpt><trkpt lat="36.064091" lon="-5.699609"><time>2026-09-30T12:11:42Z</time></trkpt><trkpt lat="36.064581" lon="-5.699722"><time>2026-09-30T12:11:49Z</time></trkpt><trkpt lat="36.065072" lon="-5.699831"><time>2026-09-30T12:11:56Z</time></trkpt><trkpt lat="36.065561" lon="-5.699950"><time>2026-09-30T12:12:03Z</time></trkpt><trkpt lat="36.066050" lon="-5.700069"><time>2026-09-30T12:12:10Z</time></trkpt><trkpt lat="36.066539" lon="-5.700191"><time>2026-09-30T12:12:17Z</time></trkpt><trkpt lat="36.067027" lon="-5.700316"><time>2026-09-30T12:12:24Z</time></trkpt><trkpt lat="36.067515" lon="-5.700448"><time>2026-09-30T12:12:31Z</time></trkpt><trkpt lat="36.068003" lon="-5.700576"><time>2026-09-30T12:12:38Z</time></trkpt><trkpt lat="36.068125" lon="-5.700540"><time>2026-09-30T12:12:41Z</time></trkpt><trkpt lat="36.068227" lon="-5.700448"><time>2026-09-30T12:12:44Z</time></trkpt><trkpt lat="36.068293" lon="-5.700316"><time>2026-09-30T12:12:47Z</time></trkpt><trkpt lat="36.068312" lon="-5.700162"><time>2026-09-30T12:12:50Z</time></trkpt><trkpt lat="36.068283" lon="-5.700011"><time>2026-09-30T12:12:53Z</time></trkpt><trkpt lat="36.068209" lon="-5.699885"><time>2026-09-30T12:12:56Z</time></trkpt><trkpt lat="36.068102" lon="-5.699804"><time>2026-09-30T12:12:59Z</time></trkpt><trkpt lat="36.067977" lon="-5.699779"><time>2026-09-30T12:13:02Z</time></trkpt><trkpt lat="36.067483" lon="-5.699804"><time>2026-09-30T12:13:09Z</time></trkpt><trkpt lat="36.066989" lon="-5.699834"><time>2026-09-30T12:13:16Z</time></trkpt><trkpt lat="36.066495" lon="-5.699871"><time>2026-09-30T12:13:23Z</time></trkpt><trkpt lat="36.066001" lon="-5.699920"><time>2026-09-30T12:13:30Z</time></trkpt><trkpt lat="36.065508" lon="-5.699980"><time>2026-09-30T12:13:37Z</time></trkpt><trkpt lat="36.065014" lon="-5.700036"><time>2026-09-30T12:13:44Z</time></trkpt><trkpt lat="36.064520" lon="-5.700091"><time>2026-09-30T12:13:51Z</time></trkpt><trkpt lat="36.064027" lon="-5.700152"><time>2026-09-30T12:13:58Z</time></trkpt><trkpt lat="36.063533" lon="-5.700204"><time>2026-09-30T12:14:05Z</time></trkpt><trkpt lat="36.063039" lon="-5.700257"><time>2026-09-30T12:14:12Z</time></trkpt><trkpt lat="36.062545" lon="-5.700304"><time>2026-09-30T12:14:19Z</time></trkpt><trkpt lat="36.062051" lon="-5.700344"><time>2026-09-30T12:14:26Z</time></trkpt><trkpt lat="36.061557" lon="-5.700376"><time>2026-09-30T12:14:33Z</time></trkpt><trkpt lat="36.061063" lon="-5.700416"><time>2026-09-30T12:14:40Z</time></trkpt><trkpt lat="36.060569" lon="-5.700449"><time>2026-09-30T12:14:47Z</time></trkpt><trkpt lat="36.060075" lon="-5.700478"><time>2026-09-30T12:14:54Z</time></trkpt><trkpt lat="36.059581" lon="-5.700506"><time>2026-09-30T12:15:01Z</time></trkpt><trkpt lat="36.059087" lon="-5.700545"><time>2026-09-30T12:15:08Z</time></trkpt><trkpt lat="36.058593" lon="-5.700576"><time>2026-09-30T12:15:15Z</time></trkpt><trkpt lat="36.058098" lon="-5.700608"><time>2026-09-30T12:15:22Z</time></trkpt><trkpt lat="36.057604" lon="-5.700643"><time>2026-09-30T12:15:29Z</time></trkpt><trkpt lat="36.057110" lon="-5.700689"><time>2026-09-30T12:15:36Z</time></trkpt><trkpt lat="36.056617" lon="-5.700745"><time>2026-09-30T12:15:43Z</time></trkpt><trkpt lat="36.056123" lon="-5.700810"><time>2026-09-30T12:15:50Z</time></trkpt><trkpt lat="36.055630" lon="-5.700873"><time>2026-09-30T12:15:57Z</time></trkpt><trkpt lat="36.055136" lon="-5.700935"><time>2026-09-30T12:16:04Z</time></trkpt><trkpt lat="36.054643" lon="-5.700996"><time>2026-09-30T12:16:11Z</time></trkpt><trkpt lat="36.054150" lon="-5.701068"><time>2026-09-30T12:16:18Z</time></trkpt><trkpt lat="36.053657" lon="-5.701153"><time>2026-09-30T12:16:25Z</time></trkpt><trkpt lat="36.053165" lon="-5.701231"><time>2026-09-30T12:16:32Z</time></trkpt><trkpt lat="36.052672" lon="-5.701304"><time>2026-09-30T12:16:39Z</time></trkpt><trkpt lat="36.052552" lon="-5.701254"><time>2026-09-30T12:16:42Z</time></trkpt><trkpt lat="36.052458" lon="-5.701151"><time>2026-09-30T12:16:45Z</time></trkpt><trkpt lat="36.052402" lon="-5.701012"><time>2026-09-30T12:16:48Z</time></trkpt><trkpt lat="36.052394" lon="-5.700856"><time>2026-09-30T12:16:51Z</time></trkpt><trkpt lat="36.052435" lon="-5.700709"><time>2026-09-30T12:16:54Z</time></trkpt><trkpt lat="36.052518" lon="-5.700592"><time>2026-09-30T12:16:57Z</time></trkpt><trkpt lat="36.052631" lon="-5.700524"><time>2026-09-30T12:17:00Z</time></trkpt><trkpt lat="36.052756" lon="-5.700514"><time>2026-09-30T12:17:03Z</time></trkpt><trkpt lat="36.053250" lon="-5.700563"><time>2026-09-30T12:17:10Z</time></trkpt><trkpt lat="36.053744" lon="-5.700618"><time>2026-09-30T12:17:17Z</time></trkpt><trkpt lat="36.054237" lon="-5.700684"><time>2026-09-30T12:17:24Z</time></trkpt><trkpt lat="36.054731" lon="-5.700753"><time>2026-09-30T12:17:31Z</time></trkpt><trkpt lat="36.055224" lon="-5.700825"><time>2026-09-30T12:17:38Z</time></trkpt><trkpt lat="36.055717" lon="-5.700896"><time>2026-09-30T12:17:45Z</time></trkpt><trkpt lat="36.056210" lon="-5.700956"><time>2026-09-30T12:17:52Z</time></trkpt><trkpt lat="36.056704" lon="-5.701012"><time>2026-09-30T12:17:59Z</time></trkpt><trkpt lat="36.057198" lon="-5.701068"><time>2026-09-30T12:18:06Z</time></trkpt><trkpt lat="36.057692" lon="-5.701121"><time>2026-09-30T12:18:13Z</time></trkpt><trkpt lat="36.058186" lon="-5.701170"><time>2026-09-30T12:18:20Z</time></trkpt><trkpt lat="36.058679" lon="-5.701230"><time>2026-09-30T12:18:27Z</time></trkpt><trkpt lat="36.059173" lon="-5.701281"><time>2026-09-30T12:18:34Z</time></trkpt><trkpt lat="36.059667" lon="-5.701325"><time>2026-09-30T12:18:41Z</time></trkpt><trkpt lat="36.060161" lon="-5.701361"><time>2026-09-30T12:18:48Z</time></trkpt><trkpt lat="36.060655" lon="-5.701390"><time>2026-09-30T12:18:55Z</time></trkpt><trkpt lat="36.061149" lon="-5.701421"><time>2026-09-30T12:19:02Z</time></trkpt><trkpt lat="36.061643" lon="-5.701455"><time>2026-09-30T12:19:09Z</time></trkpt><trkpt lat="36.062137" lon="-5.701499"><time>2026-09-30T12:19:16Z</time></trkpt><trkpt lat="36.062631" lon="-5.701539"><time>2026-09-30T12:19:23Z</time></trkpt><trkpt lat="36.063125" lon="-5.701591"><time>2026-09-30T12:19:30Z</time></trkpt><trkpt lat="36.063619" lon="-5.701652"><time>2026-09-30T12:19:37Z</time></trkpt><trkpt lat="36.064112" lon="-5.701720"><time>2026-09-30T12:19:44Z</time></trkpt><trkpt lat="36.064605" lon="-5.701797"><time>2026-09-30T12:19:51Z</time></trkpt><trkpt lat="36.065097" lon="-5.701877"><time>2026-09-30T12:19:58Z</time></trkpt><trkpt lat="36.065589" lon="-5.701968"><time>2026-09-30T12:20:05Z</time></trkpt><trkpt lat="36.066080" lon="-5.702071"><time>2026-09-30T12:20:12Z</time></trkpt><trkpt lat="36.066201" lon="-5.702028"><time>2026-09-30T12:20:15Z</time></trkpt><trkpt lat="36.066300" lon="-5.701931"><time>2026-09-30T12:20:18Z</time></trkpt><trkpt lat="36.066361" lon="-5.701795"><time>2026-09-30T12:20:21Z</time></trkpt><trkpt lat="36.066375" lon="-5.701641"><time>2026-09-30T12:20:24Z</time></trkpt><trkpt lat="36.066340" lon="-5.701491"><time>2026-09-30T12:20:27Z</time></trkpt><trkpt lat="36.066262" lon="-5.701369"><time>2026-09-30T12:20:30Z</time></trkpt><trkpt lat="36.066152" lon="-5.701294"><time>2026-09-30T12:20:33Z</time></trkpt><trkpt lat="36.066027" lon="-5.701276"><time>2026-09-30T12:20:36Z</time></trkpt><trkpt lat="36.065549" lon="-5.701155"><time>2026-09-30T12:20:43Z</time></trkpt><trkpt lat="36.065070" lon="-5.701040"><time>2026-09-30T12:20:50Z</time></trkpt><trkpt lat="36.064590" lon="-5.700926"><time>2026-09-30T12:20:57Z</time></trkpt><trkpt lat="36.064113" lon="-5.700803"><time>2026-09-30T12:21:04Z</time></trkpt><trkpt lat="36.063637" lon="-5.700672"><time>2026-09-30T12:21:11Z</time></trkpt><trkpt lat="36.063162" lon="-5.700537"><time>2026-09-30T12:21:18Z</time></trkpt><trkpt lat="36.062688" lon="-5.700397"><time>2026-09-30T12:21:25Z</time></trkpt><trkpt lat="36.062217" lon="-5.700247"><time>2026-09-30T12:21:32Z</time></trkpt><trkpt lat="36.061744" lon="-5.700103"><time>2026-09-30T12:21:39Z</time></trkpt><trkpt lat="36.061269" lon="-5.699969"><time>2026-09-30T12:21:46Z</time></trkpt><trkpt lat="36.060794" lon="-5.699832"><time>2026-09-30T12:21:53Z</time></trkpt><trkpt lat="36.060320" lon="-5.699694"><time>2026-09-30T12:22:00Z</time></trkpt><trkpt lat="36.059848" lon="-5.699545"><time>2026-09-30T12:22:07Z</time></trkpt><trkpt lat="36.059380" lon="-5.699385"><time>2026-09-30T12:22:14Z</time></trkpt><trkpt lat="36.058912" lon="-5.699221"><time>2026-09-30T12:22:21Z</time></trkpt><trkpt lat="36.058447" lon="-5.699049"><time>2026-09-30T12:22:28Z</time></trkpt><trkpt lat="36.057979" lon="-5.698884"><time>2026-09-30T12:22:35Z</time></trkpt><trkpt lat="36.057515" lon="-5.698709"><time>2026-09-30T12:22:42Z</time></trkpt><trkpt lat="36.057054" lon="-5.698523"><time>2026-09-30T12:22:49Z</time></trkpt><trkpt lat="36.056590" lon="-5.698344"><time>2026-09-30T12:22:56Z</time></trkpt><trkpt lat="36.056127" lon="-5.698165"><time>2026-09-30T12:23:03Z</time></trkpt><trkpt lat="36.055667" lon="-5.697977"><time>2026-09-30T12:23:10Z</time></trkpt><trkpt lat="36.055206" lon="-5.697788"><time>2026-09-30T12:23:17Z</time></trkpt><trkpt lat="36.054750" lon="-5.697588"><time>2026-09-30T12:23:24Z</time></trkpt><trkpt lat="36.054294" lon="-5.697386"><time>2026-09-30T12:23:31Z</time></trkpt><trkpt lat="36.054205" lon="-5.697276"><time>2026-09-30T12:23:34Z</time></trkpt><trkpt lat="36.054157" lon="-5.697132"><time>2026-09-30T12:23:37Z</time></trkpt><trkpt lat="36.054157" lon="-5.696977"><time>2026-09-30T12:23:40Z</time></trkpt><trkpt lat="36.054206" lon="-5.696833"><time>2026-09-30T12:23:43Z</time></trkpt><trkpt lat="36.054295" lon="-5.696723"><time>2026-09-30T12:23:46Z</time></trkpt><trkpt lat="36.054411" lon="-5.696664"><time>2026-09-30T12:23:49Z</time></trkpt><trkpt lat="36.054537" lon="-5.696664"><time>2026-09-30T12:23:52Z</time></trkpt><trkpt lat="36.054653" lon="-5.696724"><time>2026-09-30T12:23:55Z</time></trkpt><trkpt lat="36.055134" lon="-5.696898"><time>2026-09-30T12:24:02Z</time></trkpt><trkpt lat="36.055614" lon="-5.697073"><time>2026-09-30T12:24:09Z</time></trkpt><trkpt lat="36.056094" lon="-5.697254"><time>2026-09-30T12:24:16Z</time></trkpt><trkpt lat="36.056575" lon="-5.697426"><time>2026-09-30T12:24:23Z</time></trkpt><trkpt lat="36.057057" lon="-5.697595"><time>2026-09-30T12:24:30Z</time></trkpt><trkpt lat="36.057540" lon="-5.697755"><time>2026-09-30T12:24:37Z</time></trkpt><trkpt lat="36.058023" lon="-5.697917"><time>2026-09-30T12:24:44Z</time></trkpt><trkpt lat="36.058505" lon="-5.698083"><time>2026-09-30T12:24:51Z</time></trkpt><trkpt lat="36.058989" lon="-5.698240"><time>2026-09-30T12:24:58Z</time></trkpt><trkpt lat="36.059475" lon="-5.698383"><time>2026-09-30T12:25:05Z</time></trkpt><trkpt lat="36.059963" lon="-5.698516"><time>2026-09-30T12:25:12Z</time></trkpt><trkpt lat="36.060451" lon="-5.698640"><time>2026-09-30T12:25:19Z</time></trkpt><trkpt lat="36.060941" lon="-5.698754"><time>2026-09-30T12:25:26Z</time></trkpt><trkpt lat="36.061432" lon="-5.698860"><time>2026-09-30T12:25:33Z</time></trkpt><trkpt lat="36.061922" lon="-5.698970"><time>2026-09-30T12:25:40Z</time></trkpt><trkpt lat="36.062412" lon="-5.699077"><time>2026-09-30T12:25:47Z</time></trkpt><trkpt lat="36.062902" lon="-5.699185"><time>2026-09-30T12:25:54Z</time></trkpt><trkpt lat="36.063392" lon="-5.699302"><time>2026-09-30T12:26:01Z</time></trkpt><trkpt lat="36.063880" lon="-5.699428"><time>2026-09-30T12:26:08Z</time></trkpt><trkpt lat="36.064368" lon="-5.699557"><time>2026-09-30T12:26:15Z</time></trkpt><trkpt lat="36.064856" lon="-5.699689"><time>2026-09-30T12:26:22Z</time></trkpt><trkpt lat="36.065344" lon="-5.699814"><time>2026-09-30T12:26:29Z</time></trkpt><trkpt lat="36.065834" lon="-5.699926"><time>2026-09-30T12:26:36Z</time></trkpt><trkpt lat="36.066324" lon="-5.700038"><time>2026-09-30T12:26:43Z</time></trkpt><trkpt lat="36.066816" lon="-5.700136"><time>2026-09-30T12:26:50Z</time></trkpt><trkpt lat="36.067308" lon="-5.700221"><time>2026-09-30T12:26:57Z</time></trkpt><trkpt lat="36.067801" lon="-5.700294"><time>2026-09-30T12:27:04Z</time></trkpt><trkpt lat="36.068294" lon="-5.700367"><time>2026-09-30T12:27:11Z</time></trkpt><trkpt lat="36.068787" lon="-5.700444"><time>2026-09-30T12:27:18Z</time></trkpt><trkpt lat="36.069279" lon="-5.700525"><time>2026-09-30T12:27:25Z</time></trkpt><trkpt lat="36.069771" lon="-5.700611"><time>2026-09-30T12:27:32Z</time></trkpt><trkpt lat="36.070263" lon="-5.700702"><time>2026-09-30T12:27:39Z</time></trkpt><trkpt lat="36.070756" lon="-5.700788"><time>2026-09-30T12:27:46Z</time></trkpt><trkpt lat="36.071249" lon="-5.700862"><time>2026-09-30T12:27:53Z</time></trkpt><trkpt lat="36.071742" lon="-5.700925"><time>2026-09-30T12:28:00Z</time></trkpt><trkpt lat="36.072236" lon="-5.700987"><time>2026-09-30T12:28:07Z</time></trkpt><trkpt lat="36.072729" lon="-5.701043"><time>2026-09-30T12:28:14Z</time></trkpt><trkpt lat="36.073223" lon="-5.701090"><time>2026-09-30T12:28:21Z</time></trkpt><trkpt lat="36.073341" lon="-5.701033"><time>2026-09-30T12:28:24Z</time></trkpt><trkpt lat="36.073431" lon="-5.700926"><time>2026-09-30T12:28:27Z</time></trkpt><trkpt lat="36.073482" lon="-5.700783"><time>2026-09-30T12:28:30Z</time></trkpt><trkpt lat="36.073485" lon="-5.700628"><time>2026-09-30T12:28:33Z</time></trkpt><trkpt lat="36.073439" lon="-5.700483"><time>2026-09-30T12:28:36Z</time></trkpt><trkpt lat="36.073352" lon="-5.700370"><time>2026-09-30T12:28:39Z</time></trkpt><trkpt lat="36.073237" lon="-5.700308"><time>2026-09-30T12:28:42Z</time></trkpt><trkpt lat="36.073111" lon="-5.700304"><time>2026-09-30T12:28:45Z</time></trkpt><trkpt lat="36.072623" lon="-5.700248"><time>2026-09-30T12:28:52Z</time></trkpt><trkpt lat="36.072133" lon="-5.700201"><time>2026-09-30T12:28:59Z</time></trkpt><trkpt lat="36.071642" lon="-5.700160"><time>2026-09-30T12:29:06Z</time></trkpt><trkpt lat="36.071152" lon="-5.700115"><time>2026-09-30T12:29:13Z</time></trkpt><trkpt lat="36.070661" lon="-5.700082"><time>2026-09-30T12:29:20Z</time></trkpt><trkpt lat="36.070170" lon="-5.700049"><time>2026-09-30T12:29:27Z</time></trkpt><trkpt lat="36.069678" lon="-5.700029"><time>2026-09-30T12:29:34Z</time></trkpt><trkpt lat="36.069185" lon="-5.700024"><time>2026-09-30T12:29:41Z</time></trkpt><trkpt lat="36.068692" lon="-5.700022"><time>2026-09-30T12:29:48Z</time></trkpt><trkpt lat="36.068198" lon="-5.700022"><time>2026-09-30T12:29:55Z</time></trkpt><trkpt lat="36.067704" lon="-5.700038"><time>2026-09-30T12:30:02Z</time></trkpt><trkpt lat="36.067210" lon="-5.700063"><time>2026-09-30T12:30:09Z</time></trkpt><trkpt lat="36.066716" lon="-5.700086"><time>2026-09-30T12:30:16Z</time></trkpt><trkpt lat="36.066222" lon="-5.700105"><time>2026-09-30T12:30:23Z</time></trkpt><trkpt lat="36.065729" lon="-5.700120"><time>2026-09-30T12:30:30Z</time></trkpt><trkpt lat="36.065234" lon="-5.700150"><time>2026-09-30T12:30:37Z</time></trkpt><trkpt lat="36.064740" lon="-5.700191"><time>2026-09-30T12:30:44Z</time></trkpt><trkpt lat="36.064246" lon="-5.700230"><time>2026-09-30T12:30:51Z</time></trkpt><trkpt lat="36.063753" lon="-5.700280"><time>2026-09-30T12:30:58Z</time></trkpt><trkpt lat="36.063259" lon="-5.700347"><time>2026-09-30T12:31:05Z</time></trkpt><trkpt lat="36.062766" lon="-5.700422"><time>2026-09-30T12:31:12Z</time></trkpt><trkpt lat="36.062273" lon="-5.700499"><time>2026-09-30T12:31:19Z</time></trkpt><trkpt lat="36.061781" lon="-5.700581"><time>2026-09-30T12:31:26Z</time></trkpt><trkpt lat="36.061288" lon="-5.700659"><time>2026-09-30T12:31:33Z</time></trkpt><trkpt lat="36.060795" lon="-5.700731"><time>2026-09-30T12:31:40Z</time></trkpt><trkpt lat="36.060303" lon="-5.700819"><time>2026-09-30T12:31:47Z</time></trkpt><trkpt lat="36.059812" lon="-5.700915"><time>2026-09-30T12:31:54Z</time></trkpt><trkpt lat="36.059321" lon="-5.701017"><time>2026-09-30T12:32:01Z</time></trkpt><trkpt lat="36.058831" lon="-5.701133"><time>2026-09-30T12:32:08Z</time></trkpt><trkpt lat="36.058342" lon="-5.701253"><time>2026-09-30T12:32:15Z</time></trkpt><trkpt lat="36.057855" lon="-5.701386"><time>2026-09-30T12:32:22Z</time></trkpt><trkpt lat="36.057369" lon="-5.701531"><time>2026-09-30T12:32:29Z</time></trkpt><trkpt lat="36.056883" lon="-5.701674"><time>2026-09-30T12:32:36Z</time></trkpt><trkpt lat="36.056397" lon="-5.701816"><time>2026-09-30T12:32:43Z</time></trkpt><trkpt lat="36.056274" lon="-5.701783"><time>2026-09-30T12:32:46Z</time></trkpt><trkpt lat="36.056170" lon="-5.701695"><time>2026-09-30T12:32:49Z</time></trkpt><trkpt lat="36.056102" lon="-5.701564"><time>2026-09-30T12:32:52Z</time></trkpt><trkpt lat="36.056080" lon="-5.701411"><time>2026-09-30T12:32:55Z</time></trkpt><trkpt lat="36.056107" lon="-5.701259"><time>2026-09-30T12:32:58Z</time></trkpt><trkpt lat="36.056178" lon="-5.701131"><time>2026-09-30T12:33:01Z</time></trkpt><trkpt lat="36.056284" lon="-5.701047"><time>2026-09-30T12:33:04Z</time></trkpt><trkpt lat="36.056408" lon="-5.701019"><time>2026-09-30T12:33:07Z</time></trkpt><trkpt lat="36.056899" lon="-5.700992"><time>2026-09-30T12:33:14Z</time></trkpt><trkpt lat="36.057391" lon="-5.700965"><time>2026-09-30T12:33:21Z</time></trkpt><trkpt lat="36.057883" lon="-5.700947"><time>2026-09-30T12:33:28Z</time></trkpt><trkpt lat="36.058375" lon="-5.700917"><time>2026-09-30T12:33:35Z</time></trkpt><trkpt lat="36.058866" lon="-5.700890"><time>2026-09-30T12:33:42Z</time></trkpt><trkpt lat="36.059358" lon="-5.700863"><time>2026-09-30T12:33:49Z</time></trkpt><trkpt lat="36.059849" lon="-5.700833"><time>2026-09-30T12:33:56Z</time></trkpt><trkpt lat="36.060340" lon="-5.700793"><time>2026-09-30T12:34:03Z</time></trkpt><trkpt lat="36.060830" lon="-5.700753"><time>2026-09-30T12:34:10Z</time></trkpt><trkpt lat="36.061320" lon="-5.700703"><time>2026-09-30T12:34:17Z</time></trkpt><trkpt lat="36.061809" lon="-5.700652"><time>2026-09-30T12:34:24Z</time></trkpt><trkpt lat="36.062298" lon="-5.700599"><time>2026-09-30T12:34:31Z</time></trkpt><trkpt lat="36.062787" lon="-5.700544"><time>2026-09-30T12:34:38Z</time></trkpt><trkpt lat="36.063277" lon="-5.700500"><time>2026-09-30T12:34:45Z</time></trkpt><trkpt lat="36.063767" lon="-5.700456"><time>2026-09-30T12:34:52Z</time></trkpt><trkpt lat="36.064258" lon="-5.700418"><time>2026-09-30T12:34:59Z</time></trkpt><trkpt lat="36.064750" lon="-5.700391"><time>2026-09-30T12:35:06Z</time></trkpt><trkpt lat="36.065241" lon="-5.700356"><time>2026-09-30T12:35:13Z</time></trkpt><trkpt lat="36.065732" lon="-5.700327"><time>2026-09-30T12:35:20Z</time></trkpt><trkpt lat="36.066224" lon="-5.700298"><time>2026-09-30T12:35:27Z</time></trkpt><trkpt lat="36.066715" lon="-5.700263"><time>2026-09-30T12:35:34Z</time></trkpt><trkpt lat="36.067205" lon="-5.700226"><time>2026-09-30T12:35:41Z</time></trkpt><trkpt lat="36.067697" lon="-5.700191"><time>2026-09-30T12:35:48Z</time></trkpt><trkpt lat="36.068187" lon="-5.700156"><time>2026-09-30T12:35:55Z</time></trkpt><trkpt lat="36.068678" lon="-5.700117"><time>2026-09-30T12:36:02Z</time></trkpt><trkpt lat="36.069168" lon="-5.700072"><time>2026-09-30T12:36:09Z</time></trkpt><trkpt lat="36.069659" lon="-5.700034"><time>2026-09-30T12:36:16Z</time></trkpt><trkpt lat="36.070149" lon="-5.699994"><time>2026-09-30T12:36:23Z</time></trkpt><trkpt lat="36.070259" lon="-5.699918"><time>2026-09-30T12:36:26Z</time></trkpt><trkpt lat="36.070336" lon="-5.699795"><time>2026-09-30T12:36:29Z</time></trkpt><trkpt lat="36.070370" lon="-5.699646"><time>2026-09-30T12:36:32Z</time></trkpt><trkpt lat="36.070355" lon="-5.699491"><time>2026-09-30T12:36:35Z</time></trkpt><trkpt lat="36.070293" lon="-5.699356"><time>2026-09-30T12:36:38Z</time></trkpt><trkpt lat="36.070195" lon="-5.699260"><time>2026-09-30T12:36:41Z</time></trkpt><trkpt lat="36.070073" lon="-5.699218"><time>2026-09-30T12:36:44Z</time></trkpt><trkpt lat="36.069949" lon="-5.699236"><time>2026-09-30T12:36:47Z</time></trkpt><trkpt lat="36.069455" lon="-5.699293"><time>2026-09-30T12:36:54Z</time></trkpt><trkpt lat="36.068961" lon="-5.699354"><time>2026-09-30T12:37:01Z</time></trkpt><trkpt lat="36.068468" lon="-5.699425"><time>2026-09-30T12:37:08Z</time></trkpt><trkpt lat="36.067976" lon="-5.699508"><time>2026-09-30T12:37:15Z</time></trkpt><trkpt lat="36.067483" lon="-5.699593"><time>2026-09-30T12:37:22Z</time></trkpt><trkpt lat="36.066992" lon="-5.699684"><time>2026-09-30T12:37:29Z</time></trkpt><trkpt lat="36.066500" lon="-5.699778"><time>2026-09-30T12:37:36Z</time></trkpt><trkpt lat="36.066009" lon="-5.699876"><time>2026-09-30T12:37:43Z</time></trkpt><trkpt lat="36.065518" lon="-5.699982"><time>2026-09-30T12:37:50Z</time></trkpt><trkpt lat="36.065028" lon="-5.700089"><time>2026-09-30T12:37:57Z</time></trkpt><trkpt lat="36.064538" lon="-5.700201"><time>2026-09-30T12:38:04Z</time></trkpt><trkpt lat="36.064048" lon="-5.700315"><time>2026-09-30T12:38:11Z</time></trkpt><trkpt lat="36.063560" lon="-5.700442"><time>2026-09-30T12:38:18Z</time></trkpt><trkpt lat="36.063072" lon="-5.700577"><time>2026-09-30T12:38:25Z</time></trkpt><trkpt lat="36.062587" lon="-5.700724"><time>2026-09-30T12:38:32Z</time></trkpt><trkpt lat="36.062104" lon="-5.700885"><time>2026-09-30T12:38:39Z</time></trkpt><trkpt lat="36.061620" lon="-5.701043"><time>2026-09-30T12:38:46Z</time></trkpt><trkpt lat="36.061137" lon="-5.701205"><time>2026-09-30T12:38:53Z</time></trkpt><trkpt lat="36.060657" lon="-5.701381"><time>2026-09-30T12:39:00Z</time></trkpt><trkpt lat="36.060178" lon="-5.701568"><time>2026-09-30T12:39:07Z</time></trkpt><trkpt lat="36.059699" lon="-5.701749"><time>2026-09-30T12:39:14Z</time></trkpt><trkpt lat="36.059219" lon="-5.701925"><time>2026-09-30T12:39:21Z</time></trkpt><trkpt lat="36.058739" lon="-5.702103"><time>2026-09-30T12:39:28Z</time></trkpt><trkpt lat="36.058257" lon="-5.702274"><time>2026-09-30T12:39:35Z</time></trkpt><trkpt lat="36.057775" lon="-5.702442"><time>2026-09-30T12:39:42Z</time></trkpt><trkpt lat="36.057292" lon="-5.702604"><time>2026-09-30T12:39:49Z</time></trkpt><trkpt lat="36.056810" lon="-5.702772"><time>2026-09-30T12:39:56Z</time></trkpt><trkpt lat="36.056330" lon="-5.702951"><time>2026-09-30T12:40:03Z</time></trkpt><trkpt lat="36.056206" lon="-5.702927"><time>2026-09-30T12:40:06Z</time></trkpt><trkpt lat="36.056099" lon="-5.702846"><time>2026-09-30T12:40:09Z</time></trkpt><trkpt lat="36.056024" lon="-5.702721"><time>2026-09-30T12:40:12Z</time></trkpt><trkpt lat="36.055995" lon="-5.702569"><time>2026-09-30T12:40:15Z</time></trkpt><trkpt lat="36.056014" lon="-5.702416"><time>2026-09-30T12:40:18Z</time></trkpt><trkpt lat="36.056079" lon="-5.702283"><time>2026-09-30T12:40:21Z</time></trkpt><trkpt lat="36.056181" lon="-5.702191"><time>2026-09-30T12:40:24Z</time></trkpt><trkpt lat="36.056303" lon="-5.702154"><time>2026-09-30T12:40:27Z</time></trkpt><trkpt lat="36.056760" lon="-5.701956"><time>2026-09-30T12:40:34Z</time></trkpt><trkpt lat="36.057219" lon="-5.701763"><time>2026-09-30T12:40:41Z</time></trkpt><trkpt lat="36.057675" lon="-5.701560"><time>2026-09-30T12:40:48Z</time></trkpt><trkpt lat="36.058126" lon="-5.701345"><time>2026-09-30T12:40:55Z</time></trkpt><trkpt lat="36.058579" lon="-5.701133"><time>2026-09-30T12:41:02Z</time></trkpt><trkpt lat="36.059027" lon="-5.700909"><time>2026-09-30T12:41:09Z</time></trkpt><trkpt lat="36.059475" lon="-5.700685"><time>2026-09-30T12:41:16Z</time></trkpt><trkpt lat="36.059922" lon="-5.700459"><time>2026-09-30T12:41:23Z</time></trkpt><trkpt lat="36.060365" lon="-5.700220"><time>2026-09-30T12:41:30Z</time></trkpt><trkpt lat="36.060803" lon="-5.699972"><time>2026-09-30T12:41:37Z</time></trkpt><trkpt lat="36.061244" lon="-5.699729"><time>2026-09-30T12:41:44Z</time></trkpt><trkpt lat="36.061684" lon="-5.699485"><time>2026-09-30T12:41:51Z</time></trkpt><trkpt lat="36.062123" lon="-5.699238"><time>2026-09-30T12:41:58Z</time></trkpt><trkpt lat="36.062563" lon="-5.698993"><time>2026-09-30T12:42:05Z</time></trkpt><trkpt lat="36.063004" lon="-5.698752"><time>2026-09-30T12:42:12Z</time></trkpt><trkpt lat="36.063446" lon="-5.698512"><time>2026-09-30T12:42:19Z</time></trkpt><trkpt lat="36.063886" lon="-5.698265"><time>2026-09-30T12:42:26Z</time></trkpt><trkpt lat="36.064328" lon="-5.698026"><time>2026-09-30T12:42:33Z</time></trkpt><trkpt lat="36.064769" lon="-5.697784"><time>2026-09-30T12:42:40Z</time></trkpt><trkpt lat="36.065209" lon="-5.697540"><time>2026-09-30T12:42:47Z</time></trkpt><trkpt lat="36.065653" lon="-5.697305"><time>2026-09-30T12:42:54Z</time></trkpt><trkpt lat="36.066097" lon="-5.697071"><time>2026-09-30T12:43:01Z</time></trkpt><trkpt lat="36.066540" lon="-5.696832"><time>2026-09-30T12:43:08Z</time></trkpt><trkpt lat="36.066981" lon="-5.696590"><time>2026-09-30T12:43:15Z</time></trkpt><trkpt lat="36.067425" lon="-5.696355"><time>2026-09-30T12:43:22Z</time></trkpt><trkpt lat="36.067864" lon="-5.696108"><time>2026-09-30T12:43:29Z</time></trkpt><trkpt lat="36.067945" lon="-5.695989"><time>2026-09-30T12:43:32Z</time></trkpt><trkpt lat="36.067983" lon="-5.695841"><time>2026-09-30T12:43:35Z</time></trkpt><trkpt lat="36.067973" lon="-5.695686"><time>2026-09-30T12:43:38Z</time></trkpt><trkpt lat="36.067915" lon="-5.695548"><time>2026-09-30T12:43:41Z</time></trkpt><trkpt lat="36.067819" lon="-5.695448"><time>2026-09-30T12:43:44Z</time></trkpt><trkpt lat="36.067699" lon="-5.695400"><time>2026-09-30T12:43:47Z</time></trkpt><trkpt lat="36.067574" lon="-5.695413"><time>2026-09-30T12:43:50Z</time></trkpt><trkpt lat="36.067462" lon="-5.695485"><time>2026-09-30T12:43:53Z</time></trkpt><trkpt lat="36.067044" lon="-5.695843"><time>2026-09-30T12:44:00Z</time></trkpt><trkpt lat="36.066619" lon="-5.696188"><time>2026-09-30T12:44:07Z</time></trkpt><trkpt lat="36.066195" lon="-5.696535"><time>2026-09-30T12:44:14Z</time></trkpt><trkpt lat="36.065766" lon="-5.696874"><time>2026-09-30T12:44:21Z</time></trkpt><trkpt lat="36.065333" lon="-5.697200"><time>2026-09-30T12:44:28Z</time></trkpt><trkpt lat="36.064897" lon="-5.697521"><time>2026-09-30T12:44:35Z</time></trkpt><trkpt lat="36.064463" lon="-5.697847"><time>2026-09-30T12:44:42Z</time></trkpt><trkpt lat="36.064030" lon="-5.698174"><time>2026-09-30T12:44:49Z</time></trkpt><trkpt lat="36.063593" lon="-5.698493"><time>2026-09-30T12:44:56Z</time></trkpt><trkpt lat="36.063152" lon="-5.698801"><time>2026-09-30T12:45:03Z</time></trkpt><trkpt lat="36.062712" lon="-5.699112"><time>2026-09-30T12:45:10Z</time></trkpt><trkpt lat="36.062271" lon="-5.699422"><time>2026-09-30T12:45:17Z</time></trkpt><trkpt lat="36.061830" lon="-5.699731"><time>2026-09-30T12:45:24Z</time></trkpt><trkpt lat="36.061384" lon="-5.700028"><time>2026-09-30T12:45:31Z</time></trkpt><trkpt lat="36.060933" lon="-5.700311"><time>2026-09-30T12:45:38Z</time></trkpt><trkpt lat="36.060482" lon="-5.700593"><time>2026-09-30T12:45:45Z</time></trkpt><trkpt lat="36.060029" lon="-5.700870"><time>2026-09-30T12:45:52Z</time></trkpt><trkpt lat="36.059571" lon="-5.701134"><time>2026-09-30T12:45:59Z</time></trkpt><trkpt lat="36.059115" lon="-5.701402"><time>2026-09-30T12:46:06Z</time></trkpt><trkpt lat="36.058659" lon="-5.701670"><time>2026-09-30T12:46:13Z</time></trkpt><trkpt lat="36.058203" lon="-5.701939"><time>2026-09-30T12:46:20Z</time></trkpt><trkpt lat="36.057743" lon="-5.702195"><time>2026-09-30T12:46:27Z</time></trkpt><trkpt lat="36.057284" lon="-5.702455"><time>2026-09-30T12:46:34Z</time></trkpt><trkpt lat="36.056821" lon="-5.702700"><time>2026-09-30T12:46:41Z</time></trkpt><trkpt lat="36.056359" lon="-5.702950"><time>2026-09-30T12:46:48Z</time></trkpt><trkpt lat="36.055895" lon="-5.703194"><time>2026-09-30T12:46:55Z</time></trkpt><trkpt lat="36.055429" lon="-5.703430"><time>2026-09-30T12:47:02Z</time></trkpt><trkpt lat="36.054962" lon="-5.703663"><time>2026-09-30T12:47:09Z</time></trkpt><trkpt lat="36.054496" lon="-5.703901"><time>2026-09-30T12:47:16Z</time></trkpt><trkpt lat="36.054028" lon="-5.704129"><time>2026-09-30T12:47:23Z</time></trkpt><trkpt lat="36.053557" lon="-5.704345"><time>2026-09-30T12:47:30Z</time></trkpt><trkpt lat="36.053084" lon="-5.704557"><time>2026-09-30T12:47:37Z</time></trkpt><trkpt lat="36.052609" lon="-5.704759"><time>2026-09-30T12:47:44Z</time></trkpt><trkpt lat="36.052131" lon="-5.704947"><time>2026-09-30T12:47:51Z</time></trkpt><trkpt lat="36.051651" lon="-5.705123"><time>2026-09-30T12:47:58Z</time></trkpt><trkpt lat="36.051168" lon="-5.705284"><time>2026-09-30T12:48:05Z</time></trkpt><trkpt lat="36.050683" lon="-5.705434"><time>2026-09-30T12:48:12Z</time></trkpt><trkpt lat="36.050196" lon="-5.705575"><time>2026-09-30T12:48:19Z</time></trkpt><trkpt lat="36.049709" lon="-5.705707"><time>2026-09-30T12:48:26Z</time></trkpt><trkpt lat="36.049221" lon="-5.705841"><time>2026-09-30T12:48:33Z</time></trkpt><trkpt lat="36.049099" lon="-5.705805"><time>2026-09-30T12:48:36Z</time></trkpt><trkpt lat="36.048996" lon="-5.705715"><time>2026-09-30T12:48:39Z</time></trkpt><trkpt lat="36.048930" lon="-5.705583"><time>2026-09-30T12:48:42Z</time></trkpt><trkpt lat="36.048909" lon="-5.705429"><time>2026-09-30T12:48:45Z</time></trkpt><trkpt lat="36.048938" lon="-5.705278"><time>2026-09-30T12:48:48Z</time></trkpt><trkpt lat="36.049011" lon="-5.705151"><time>2026-09-30T12:48:51Z</time></trkpt><trkpt lat="36.049118" lon="-5.705069"><time>2026-09-30T12:48:54Z</time></trkpt><trkpt lat="36.049242" lon="-5.705044"><time>2026-09-30T12:48:57Z</time></trkpt><trkpt lat="36.049734" lon="-5.705029"><time>2026-09-30T12:49:04Z</time></trkpt><trkpt lat="36.050228" lon="-5.705029"><time>2026-09-30T12:49:11Z</time></trkpt><trkpt lat="36.050721" lon="-5.705039"><time>2026-09-30T12:49:18Z</time></trkpt><trkpt lat="36.051215" lon="-5.705064"><time>2026-09-30T12:49:25Z</time></trkpt><trkpt lat="36.051709" lon="-5.705087"><time>2026-09-30T12:49:32Z</time></trkpt><trkpt lat="36.052204" lon="-5.705113"><time>2026-09-30T12:49:39Z</time></trkpt><trkpt lat="36.052698" lon="-5.705149"><time>2026-09-30T12:49:46Z</time></trkpt><trkpt lat="36.053192" lon="-5.705191"><time>2026-09-30T12:49:53Z</time></trkpt><trkpt lat="36.053686" lon="-5.705226"><time>2026-09-30T12:50:00Z</time></trkpt><trkpt lat="36.054180" lon="-5.705273"><time>2026-09-30T12:50:07Z</time></trkpt><trkpt lat="36.054674" lon="-5.705318"><time>2026-09-30T12:50:14Z</time></trkpt><trkpt lat="36.055168" lon="-5.705367"><time>2026-09-30T12:50:21Z</time></trkpt><trkpt lat="36.055661" lon="-5.705421"><time>2026-09-30T12:50:28Z</time></trkpt><trkpt lat="36.056155" lon="-5.705470"><time>2026-09-30T12:50:35Z</time></trkpt><trkpt lat="36.056649" lon="-5.705526"><time>2026-09-30T12:50:42Z</time></trkpt><trkpt lat="36.057143" lon="-5.705585"><time>2026-09-30T12:50:49Z</time></trkpt><trkpt lat="36.057636" lon="-5.705643"><time>2026-09-30T12:50:56Z</time></trkpt><trkpt lat="36.058130" lon="-5.705695"><time>2026-09-30T12:51:03Z</time></trkpt><trkpt lat="36.058624" lon="-5.705753"><time>2026-09-30T12:51:10Z</time></trkpt><trkpt lat="36.059118" lon="-5.705808"><time>2026-09-30T12:51:17Z</time></trkpt><trkpt lat="36.059611" lon="-5.705861"><time>2026-09-30T12:51:24Z</time></trkpt><trkpt lat="36.060105" lon="-5.705915"><time>2026-09-30T12:51:31Z</time></trkpt><trkpt lat="36.060599" lon="-5.705975"><time>2026-09-30T12:51:38Z</time></trkpt><trkpt lat="36.061092" lon="-5.706043"><time>2026-09-30T12:51:45Z</time></trkpt><trkpt lat="36.061585" lon="-5.706124"><time>2026-09-30T12:51:52Z</time></trkpt><trkpt lat="36.062076" lon="-5.706218"><time>2026-09-30T12:51:59Z</time></trkpt><trkpt lat="36.062567" lon="-5.706326"><time>2026-09-30T12:52:06Z</time></trkpt><trkpt lat="36.063057" lon="-5.706432"><time>2026-09-30T12:52:13Z</time></trkpt><trkpt lat="36.063547" lon="-5.706547"><time>2026-09-30T12:52:20Z</time></trkpt><trkpt lat="36.064035" lon="-5.706674"><time>2026-09-30T12:52:27Z</time></trkpt><trkpt lat="36.064521" lon="-5.706815"><time>2026-09-30T12:52:34Z</time></trkpt><trkpt lat="36.065008" lon="-5.706951"><time>2026-09-30T12:52:41Z</time></trkpt><trkpt lat="36.065131" lon="-5.706916"><time>2026-09-30T12:52:44Z</time></trkpt><trkpt lat="36.065234" lon="-5.706826"><time>2026-09-30T12:52:47Z</time></trkpt><trkpt lat="36.065301" lon="-5.706695"><time>2026-09-30T12:52:50Z</time></trkpt><trkpt lat="36.065322" lon="-5.706541"><time>2026-09-30T12:52:53Z</time></trkpt><trkpt lat="36.065294" lon="-5.706390"><time>2026-09-30T12:52:56Z</time></trkpt><trkpt lat="36.065221" lon="-5.706263"><time>2026-09-30T12:52:59Z</time></trkpt><trkpt lat="36.065115" lon="-5.706180"><time>2026-09-30T12:53:02Z</time></trkpt><trkpt lat="36.064991" lon="-5.706154"><time>2026-09-30T12:53:05Z</time></trkpt></trkseg></trk></gpx>